NORAD_CAT_ID,OBJECT_NAME,OBJECT_TYPE,EPOCH,MEAN_MOTION,ECCENTRICITY,INCLINATION,RA_OF_ASC_NODE,ARG_OF_PERICENTER,MEAN_ANOMALY,BSTAR,MEAN_MOTION_DOT,MEAN_MOTION_DDOT,TLE_LINE0,TLE_LINE1,TLE_LINE2,SEMIMAJOR_AXIS,PERIOD,APOGEE,PERIGEE,DECAYED
55767.0,STARLINK-5606,PAYLOAD,2023-05-17 20:59:50,15.69929164,0.0003869,69.9969,304.0076,269.5713,90.5039,9.2394e-06,8.98e-06,0.0,0 STARLINK-5606,1 55767U 23028AC  23137.87489300  .00000898  00000-0  92394-5 0  9997,2 55767  69.9969 304.0076 0003869 269.5713  90.5039 15.69929164 12460,6737.237,91.724,361.708,356.495,0.0
55767.0,STARLINK-5606,PAYLOAD,2023-05-18 12:17:22,15.69922581,0.0003773,69.9976,302.2165,271.2198,88.8565,4.477e-06,3.25e-06,0.0,0 STARLINK-5606,1 55767U 23028AC  23138.51206542  .00000325  00000-0  44770-5 0  9994,2 55767  69.9976 302.2165 0003773 271.2198  88.8565 15.69922581 12569,6737.255,91.724,361.662,356.579,0.0
55767.0,STARLINK-5606,PAYLOAD,2023-05-18 19:56:07,15.69933873,0.00037,69.9978,301.3208,271.2243,88.8529,4.0924e-06,2.79e-06,0.0,0 STARLINK-5606,1 55767U 23028AC  23138.83064149  .00000279  00000-0  40924-5 0  9999,2 55767  69.9978 301.3208 0003700 271.2243  88.8529 15.69933873 12612,6737.223,91.724,361.581,356.595,0.0
55767.0,STARLINK-5606,PAYLOAD,2023-05-19 09:41:54,15.6992547,0.0003428,69.998,299.7084,272.2916,87.7887,-1.1187e-06,-3.47e-06,0.0,0 STARLINK-5606,1 55767U 23028AC  23139.40409945 -.00000347  00000-0 -11187-5 0  9997,2 55767  69.9980 299.7084 0003428 272.2916  87.7887 15.69925470 12699,6737.247,91.724,361.422,356.803,0.0
55767.0,STARLINK-5606,PAYLOAD,2023-05-19 20:24:09,15.69938938,0.0003538,69.9975,298.4556,267.8583,92.2208,-8.6521e-06,-1.254e-05,0.0,0 STARLINK-5606,1 55767U 23028AC  23139.85010868 -.00001254  00000-0 -86521-5 0  9990,2 55767  69.9975 298.4556 0003538 267.8583  92.2208 15.69938938 12775,6737.209,91.723,361.457,356.69,0.0
55767.0,STARLINK-5606,PAYLOAD,2023-05-20 10:09:55,15.69927639,0.0003711,69.9979,296.8427,274.9282,85.149,5.7329e-06,4.76e-06,0.0,0 STARLINK-5606,1 55767U 23028AC  23140.42356362  .00000476  00000-0  57329-5 0  9994,2 55767  69.9979 296.8427 0003711 274.9282  85.1490 15.69927639 12855,6737.241,91.724,361.606,356.606,0.0
55767.0,STARLINK-5606,PAYLOAD,2023-05-20 17:48:39,15.69954972,0.0003847,69.9987,295.9459,275.8337,84.242,3.0891e-05,3.508e-05,0.0,0 STARLINK-5606,1 55767U 23028AC  23140.74212259  .00003508  00000-0  30891-4 0  9998,2 55767  69.9987 295.9459 0003847 275.8337  84.2420 15.69954972 12909,6737.163,91.722,361.62,356.436,0.0
55767.0,STARLINK-5606,PAYLOAD,2023-05-20 19:20:25,15.69943206,0.0003662,69.9992,295.7674,281.9784,78.1001,1.7628e-05,1.909e-05,0.0,0 STARLINK-5606,1 55767U 23028AC  23140.80584986  .00001909  00000-0  17628-4 0  9990,2 55767  69.9992 295.7674 0003662 281.9784  78.1001 15.69943206 12928,6737.196,91.723,361.529,356.594,0.0
55767.0,STARLINK-5606,PAYLOAD,2023-05-21 10:37:59,15.69904642,0.0003826,69.9981,293.9752,291.2964,68.7823,-9.3448e-06,-1.336e-05,0.0,0 STARLINK-5606,1 55767U 23028AC  23141.44305133 -.00001336  00000-0 -93448-5 0  9997,2 55767  69.9981 293.9752 0003826 291.2964  68.7823 15.69904642 13029,6737.307,91.725,361.75,356.594,0.0
55767.0,STARLINK-5606,PAYLOAD,2023-05-21 16:44:59,15.69911569,0.0003291,69.9991,293.2618,275.8131,84.2689,2.5399e-05,2.841e-05,0.0,0 STARLINK-5606,1 55767U 23028AC  23141.69790784  .00002841  00000-0  25399-4 0  9993,2 55767  69.9991 293.2618 0003291 275.8131  84.2689 15.69911569 13056,6737.287,91.725,361.369,356.935,0.0
55767.0,STARLINK-5606,PAYLOAD,2023-05-21 19:48:29,15.69907344,0.0003352,69.9995,292.903,275.8742,84.2072,4.0647e-05,4.674e-05,0.0,0 STARLINK-5606,1 55767U 23028AC  23141.82534245  .00004674  00000-0  40647-4 0  9995,2 55767  69.9995 292.9030 0003352 275.8742  84.2072 15.69907344 13085,6737.299,91.725,361.422,356.906,0.0
55767.0,STARLINK-5606,PAYLOAD,2023-05-22 03:27:13,15.69944659,0.0003735,69.9989,292.0061,273.5387,86.5382,1.8097e-05,1.965e-05,0.0,0 STARLINK-5606,1 55767U 23028AC  23142.14390370  .00001965  00000-0  18097-4 0  9994,2 55767  69.9989 292.0061 0003735 273.5387  86.5382 15.69944659 13122,6737.192,91.723,361.574,356.541,0.0
55767.0,STARLINK-5606,PAYLOAD,2023-05-22 09:34:16,15.6991569,0.0003246,69.999,291.2899,275.3874,84.6951,-1.1613e-05,-1.608e-05,0.0,0 STARLINK-5606,1 55767U 23028AC  23142.39879649 -.00001608  00000-0 -11613-4 0  9995,2 55767  69.9990 291.2899 0003246 275.3874  84.6951 15.69915690 13160,6737.275,91.725,361.327,356.953,0.0
55767.0,STARLINK-5606,PAYLOAD,2023-05-22 11:06:01,15.69905323,0.0003653,69.9997,291.1097,272.081,87.9968,-2.3513e-05,-3.037e-05,0.0,0 STARLINK-5606,1 55767U 23028AC  23142.46252146 -.00003037  00000-0 -23513-4 0  9990,2 55767  69.9997 291.1097 0003653 272.0810  87.9968 15.69905323 13180,6737.305,91.725,361.631,356.709,0.0
55767.0,STARLINK-5606,PAYLOAD,2023-05-22 12:37:47,15.6990335,0.0003779,69.9983,290.9306,271.313,88.7633,-2.1602e-05,-2.808e-05,0.0,0 STARLINK-5606,1 55767U 23028AC  23142.52623924 -.00002808  00000-0 -21602-4 0  9995,2 55767  69.9983 290.9306 0003779 271.3130  88.7633 15.69903350 13187,6737.311,91.725,361.722,356.629,0.0
55767.0,STARLINK-5606,PAYLOAD,2023-05-22 20:16:32,15.69911632,0.0003017,69.9983,290.033,255.6438,104.4422,-2.4919e-05,-3.206e-05,0.0,0 STARLINK-5606,1 55767U 23028AC  23142.84482089 -.00003206  00000-0 -24919-4 0  9992,2 55767  69.9983 290.0330 0003017 255.6438 104.4422 15.69911632 13247,6737.287,91.725,361.184,357.119,0.0
55767.0,STARLINK-5606,PAYLOAD,2023-05-23 16:09:17,15.69927159,0.0003601,69.9987,287.7088,255.992,104.0876,2.9636e-05,3.353e-05,0.0,0 STARLINK-5606,1 55767U 23028AC  23143.67311793  .00003353  00000-0  29636-4 0  9999,2 55767  69.9987 287.7088 0003601 255.9920 104.0876 15.69927159 13365,6737.242,91.724,361.533,356.681,0.0
55767.0,STARLINK-5606,PAYLOAD,2023-05-23 19:12:46,15.69949227,0.0003218,69.9985,287.3491,264.9653,95.1176,-1.3311e-05,-1.815e-05,0.0,0 STARLINK-5606,1 55767U 23028AC  23143.80054369 -.00001815  00000-0 -13311-4 0  9993,2 55767  69.9985 287.3491 0003218 264.9653  95.1176 15.69949227 13390,6737.179,91.723,361.212,356.876,0.0
55767.0,STARLINK-5606,PAYLOAD,2023-05-25 18:37:07,15.69918024,0.0003739,69.9982,281.7946,268.9437,91.133,-9.4501e-06,-1.349e-05,0.0,0 STARLINK-5606,1 55767U 23028AC  23145.77578568 -.00001349  00000-0 -94501-5 0  9996,2 55767  69.9982 281.7946 0003739 268.9437  91.1330 15.69918024 13694,6737.269,91.725,361.653,356.614,0.0
55767.0,STARLINK-5606,PAYLOAD,2023-05-26 11:26:23,15.69929546,0.0003352,69.9983,279.8243,264.0707,96.0107,2.9152e-06,1.38e-06,0.0,0 STARLINK-5606,1 55767U 23028AC  23146.47665644  .00000138  00000-0  29152-5 0  9999,2 55767  69.9983 279.8243 0003352 264.0707  96.0107 15.69929546 13812,6737.236,91.724,361.359,356.842,0.0
55767.0,STARLINK-5606,PAYLOAD,2023-05-26 17:33:23,15.69932467,0.0003465,69.998,279.1076,256.2557,103.8253,1.5788e-05,1.687e-05,0.0,0 STARLINK-5606,1 55767U 23028AC  23146.73151852  .00001687  00000-0  15788-4 0  9998,2 55767  69.9980 279.1076 0003465 256.2557 103.8253 15.69932467 13845,6737.227,91.724,361.427,356.758,0.0
55767.0,STARLINK-5606,PAYLOAD,2023-05-26 19:05:08,15.69930647,0.0003521,69.9975,278.9286,271.7721,88.3071,9.8125e-06,9.67e-06,0.0,0 STARLINK-5606,1 55767U 23028AC  23146.79523715  .00000967  00000-0  98125-5 0  9992,2 55767  69.9975 278.9286 0003521 271.7721  88.3071 15.69930647 13862,6737.232,91.724,361.47,356.725,0.0
55767.0,STARLINK-5606,PAYLOAD,2023-05-27 10:22:40,15.69910121,0.000364,69.997,277.1372,276.3803,83.6978,2.9321e-05,3.312e-05,0.0,0 STARLINK-5606,1 55767U 23028AC  23147.43241384  .00003312  00000-0  29321-4 0  9991,2 55767  69.9970 277.1372 0003640 276.3803  83.6978 15.69910121 13957,6737.291,91.725,361.609,356.704,0.0
55767.0,STARLINK-5606,PAYLOAD,2023-05-27 18:01:26,15.69903366,0.0003302,69.9986,276.2424,276.1337,83.9482,2.5281e-05,2.826e-05,0.0,0 STARLINK-5606,1 55767U 23028AC  23147.75100560  .00002826  00000-0  25281-4 0  9996,2 55767  69.9986 276.2424 0003302 276.1337  83.9482 15.69903366 14000,6737.31,91.725,361.4,356.951,0.0
55767.0,STARLINK-5606,PAYLOAD,2023-05-28 01:40:11,15.69930267,0.0003278,69.9998,275.3466,264.9028,95.1794,-7.7336e-06,-1.143e-05,0.0,0 STARLINK-5606,1 55767U 23028AC  23148.06957845 -.00001143  00000-0 -77336-5 0  9999,2 55767  69.9998 275.3466 0003278 264.9028  95.1794 15.69930267 14059,6737.234,91.724,361.307,356.89,0.0
55767.0,STARLINK-5606,PAYLOAD,2023-05-28 18:29:27,15.69931537,0.0003451,69.9975,273.3749,273.1265,86.9536,6.3165e-06,5.47e-06,0.0,0 STARLINK-5606,1 55767U 23028AC  23148.77045497  .00000547  00000-0  63165-5 0  9998,2 55767  69.9975 273.3749 0003451 273.1265  86.9536 15.69931537 14170,6737.23,91.724,361.42,356.77,0.0
55767.0,STARLINK-5606,PAYLOAD,2023-05-29 09:46:59,15.69915219,0.0003707,69.9985,271.5857,271.8932,88.1839,-1.0361e-05,-1.458e-05,0.0,0 STARLINK-5606,1 55767U 23028AC  23149.40763688 -.00001458  00000-0 -10361-4 0  9991,2 55767  69.9985 271.5857 0003707 271.8932  88.1839 15.69915219 14260,6737.277,91.725,361.639,356.644,0.0
55767.0,STARLINK-5606,PAYLOAD,2023-05-29 11:18:45,15.69914505,0.0003717,69.9983,271.4057,272.8795,87.1976,-1.0542e-05,-1.48e-05,0.0,0 STARLINK-5606,1 55767U 23028AC  23149.47135418 -.00001480  00000-0 -10542-4 0  9998,2 55767  69.9983 271.4057 0003717 272.8795  87.1976 15.69914505 14288,6737.279,91.725,361.648,356.639,0.0
55767.0,STARLINK-5606,PAYLOAD,2023-05-29 17:25:45,15.69924431,0.0003331,69.9987,270.6903,264.661,95.4205,-1.3324e-05,-1.815e-05,0.0,0 STARLINK-5606,1 55767U 23028AC  23149.72621590 -.00001815  00000-0 -13324-4 0  9990,2 55767  69.9987 270.6903 0003331 264.6610  95.4205 15.69924431 14310,6737.25,91.724,361.359,356.871,0.0
55767.0,STARLINK-5606,PAYLOAD,2023-05-30 01:04:29,15.69930484,0.0003429,69.9985,269.7921,269.1826,90.8977,1.5808e-05,1.689e-05,0.0,0 STARLINK-5606,1 55767U 23028AC  23150.04478946  .00001689  00000-0  15808-4 0  9998,2 55767  69.9985 269.7921 0003429 269.1826  90.8977 15.69930484 14369,6737.233,91.724,361.408,356.788,0.0
